start=new Date('2021-10-28T00:00:00.000Z').valueOf();
sats=[{"DECAY_DATE":null,"CLASSIFICATION_TYPE":"U","MEAN_ANOMALY":"292.3820","MEAN_MOTION_DDOT":"0.0000000000000","SITE":"AFETR","APOAPSIS":"548.366","TLE_LINE1":"1 44752U 19074AR  21300.33900699 -.00000357  00000-0 -50523-5 0  9995","NORAD_CAT_ID":"44752","CENTER_NAME":"EARTH","RCS_SIZE":"LARGE","RA_OF_ASC_NODE":"163.9317","COUNTRY_CODE":"US","ARG_OF_PERICENTER":"67.7345","MEAN_ELEMENT_THEORY":"SGP4","LAUNCH_DATE":"2019-11-11","REF_FRAME":"TEME","TIME_SYSTEM":"UTC","EPHEMERIS_TYPE":"0","TLE_LINE2":"2 44752  53.0530 163.9317 0001658  67.7345 292.3820 15.06398669108167","PERIOD":"95.592","OBJECT_ID":"2019-074AR","SEMIMAJOR_AXIS":"6925.353","ECCENTRICITY":"0.00016580","OBJECT_NAME":"STARLINK-1047","MEAN_MOTION":"15.06398669","MEAN_MOTION_DOT":"-0.00000357","ELEMENT_SET_NO":"999","INCLINATION":"53.0530","PERIAPSIS":"546.069","REV_AT_EPOCH":"10816","BSTAR":"-0.00000505230000","EPOCH":"2021-10-27T08:08:10.203936","OBJECT_TYPE":"PAYLOAD","GP_ID":"188270601","FILE":"3187107"},{"MEAN_ELEMENT_THEORY":"SGP4","LAUNCH_DATE":"2019-11-11","REF_FRAME":"TEME","ARG_OF_PERICENTER":"81.2245","RCS_SIZE":"LARGE","RA_OF_ASC_NODE":"144.2231","COUNTRY_CODE":"US","NORAD_CAT_ID":"44753","CENTER_NAME":"EARTH","APOAPSIS":"548.386","TLE_LINE1":"1 44753U 19074AS  21300.27818932 -.00000344  00000-0 -41730-5 0  9993","MEAN_MOTION_DDOT":"0.0000000000000","SITE":"AFETR","DECAY_DATE":null,"CLASSIFICATION_TYPE":"U","MEAN_ANOMALY":"278.8936","GP_ID":"188271353","FILE":"3187107","REV_AT_EPOCH":"10843","PERIAPSIS":"546.037","BSTAR":"-0.00000417300000","EPOCH":"2021-10-27T06:40:35.557248","OBJECT_TYPE":"PAYLOAD","INCLINATION":"53.0540","OBJECT_NAME":"STARLINK-1048","ECCENTRICITY":"0.00016960","MEAN_MOTION":"15.06400757","ELEMENT_SET_NO":"999","MEAN_MOTION_DOT":"-0.00000344","TLE_LINE2":"2 44753  53.0540 144.2231 0001696  81.2245 278.8936 15.06400757108437","PERIOD":"95.592","OBJECT_ID":"2019-074AS","SEMIMAJOR_AXIS":"6925.346","TIME_SYSTEM":"UTC","EPHEMERIS_TYPE":"0"},{"ARG_OF_PERICENTER":"77.4979","MEAN_ELEMENT_THEORY":"SGP4","LAUNCH_DATE":"2019-11-11","REF_FRAME":"TEME","CENTER_NAME":"EARTH","NORAD_CAT_ID":"44754","RCS_SIZE":"LARGE","RA_OF_ASC_NODE":"144.1982","COUNTRY_CODE":"US","APOAPSIS":"548.608","TLE_LINE1":"1 44754U 19074AT  21300.28190124  .00001487  00000-0  11875-3 0  9993","CLASSIFICATION_TYPE":"U","DECAY_DATE":null,"MEAN_ANOMALY":"282.6232","MEAN_MOTION_DDOT":"0.0000000000000","SITE":"AFETR","GP_ID":"188271104","FILE":"3187107","PERIAPSIS":"545.862","REV_AT_EPOCH":"10843","BSTAR":"0.00011875000000","OBJECT_TYPE":"PAYLOAD","EPOCH":"2021-10-27T06:45:56.267136","ECCENTRICITY":"0.00019820","OBJECT_NAME":"STARLINK-1049","MEAN_MOTION":"15.06393015","ELEMENT_SET_NO":"999","MEAN_MOTION_DOT":"0.00001487","INCLINATION":"53.0542","EPHEMERIS_TYPE":"0","TIME_SYSTEM":"UTC","TLE_LINE2":"2 44754  53.0542 144.1982 0001982  77.4979 282.6232 15.06393015108431","PERIOD":"95.593","OBJECT_ID":"2019-074AT","SEMIMAJOR_AXIS":"6925.370"},{"EPOCH":"2021-10-27T15:56:32.131392","OBJECT_TYPE":"PAYLOAD","BSTAR":"0.00015624000000","PERIAPSIS":"545.872","REV_AT_EPOCH":"10811","FILE":"3187218","GP_ID":"188274907","EPHEMERIS_TYPE":"0","TIME_SYSTEM":"UTC","SEMIMAJOR_AXIS":"6925.347","OBJECT_ID":"2019-074AU","PERIOD":"95.592","TLE_LINE2":"2 44755  53.0544 182.5125 0001935  75.7919 284.3285 15.06400415108117","MEAN_MOTION_DOT":"0.00002046","ELEMENT_SET_NO":"999","MEAN_MOTION":"15.06400415","OBJECT_NAME":"STARLINK-1050","ECCENTRICITY":"0.00019350","INCLINATION":"53.0544","NORAD_CAT_ID":"44755","CENTER_NAME":"EARTH","RA_OF_ASC_NODE":"182.5125","COUNTRY_CODE":"US","RCS_SIZE":"LARGE","ARG_OF_PERICENTER":"75.7919","REF_FRAME":"TEME","LAUNCH_DATE":"2019-11-11","MEAN_ELEMENT_THEORY":"SGP4","MEAN_ANOMALY":"284.3285","CLASSIFICATION_TYPE":"U","DECAY_DATE":null,"SITE":"AFETR","MEAN_MOTION_DDOT":"0.0000000000000","TLE_LINE1":"1 44755U 19074AU  21300.66426078  .00002046  00000-0  15624-3 0  9994","APOAPSIS":"548.552"},{"MEAN_ANOMALY":"347.4401","DECAY_DATE":null,"CLASSIFICATION_TYPE":"U","SITE":"AFETR","MEAN_MOTION_DDOT":"0.0000000000000","APOAPSIS":"364.076","TLE_LINE1":"1 44756U 19074AV  21300.52825944  .00000319  00000-0  76916-5 0  9999","CENTER_NAME":"EARTH","NORAD_CAT_ID":"44756","RCS_SIZE":"LARGE","RA_OF_ASC_NODE":"77.2313","COUNTRY_CODE":"US","ARG_OF_PERICENTER":"12.6702","MEAN_ELEMENT_THEORY":"SGP4","REF_FRAME":"TEME","LAUNCH_DATE":"2019-11-11","TIME_SYSTEM":"UTC","EPHEMERIS_TYPE":"0","PERIOD":"91.777","TLE_LINE2":"2 44756  53.0521  77.2313 0003494  12.6702 347.4401 15.69014076109557","SEMIMAJOR_AXIS":"6739.856","OBJECT_ID":"2019-074AV","ECCENTRICITY":"0.00034940","OBJECT_NAME":"STARLINK-1051","MEAN_MOTION_DOT":"0.00000319","ELEMENT_SET_NO":"999","MEAN_MOTION":"15.69014076","INCLINATION":"53.0521","PERIAPSIS":"359.366","REV_AT_EPOCH":"10955","EPOCH":"2021-10-27T12:40:41.615616","OBJECT_TYPE":"PAYLOAD","BSTAR":"0.00000769160000","GP_ID":"188229275","FILE":"3186174"},{"TIME_SYSTEM":"UTC","EPHEMERIS_TYPE":"0","OBJECT_ID":"2019-074AW","SEMIMAJOR_AXIS":"6925.330","TLE_LINE2":"2 44757  53.0545 165.0668 0001751  68.3520 291.7655 15.06406183108122","PERIOD":"95.592","MEAN_MOTION":"15.06406183","MEAN_MOTION_DOT":"-0.00000181","ELEMENT_SET_NO":"999","ECCENTRICITY":"0.00017510","OBJECT_NAME":"STARLINK-1052","INCLINATION":"53.0545","BSTAR":"0.00000678020000","EPOCH":"2021-10-27T02:01:56.653536","OBJECT_TYPE":"PAYLOAD","REV_AT_EPOCH":"10812","PERIAPSIS":"545.982","FILE":"3187107","GP_ID":"188270854","CLASSIFICATION_TYPE":"U","DECAY_DATE":null,"MEAN_ANOMALY":"291.7655","MEAN_MOTION_DDOT":"0.0000000000000","SITE":"AFETR","TLE_LINE1":"1 44757U 19074AW  21300.08468349 -.00000181  00000-0  67802-5 0  9995","APOAPSIS":"548.407","NORAD_CAT_ID":"44757","CENTER_NAME":"EARTH","RA_OF_ASC_NODE":"165.0668","COUNTRY_CODE":"US","RCS_SIZE":"LARGE","ARG_OF_PERICENTER":"68.3520","LAUNCH_DATE":"2019-11-11","REF_FRAME":"TEME","MEAN_ELEMENT_THEORY":"SGP4"},{"ARG_OF_PERICENTER":"82.8274","REF_FRAME":"TEME","LAUNCH_DATE":"2019-11-11","MEAN_ELEMENT_THEORY":"SGP4","CENTER_NAME":"EARTH","NORAD_CAT_ID":"44758","COUNTRY_CODE":"US","RA_OF_ASC_NODE":"185.0309","RCS_SIZE":"LARGE","TLE_LINE1":"1 44758U 19074AX  21300.09293800 -.00000203  00000-0  52502-5 0  9991","APOAPSIS":"548.277","MEAN_ANOMALY":"277.2894","DECAY_DATE":null,"CLASSIFICATION_TYPE":"U","SITE":"AFETR","MEAN_MOTION_DDOT":"0.0000000000000","FILE":"3187107","GP_ID":"188271604","OBJECT_TYPE":"PAYLOAD","EPOCH":"2021-10-27T02:13:49.843200","BSTAR":"0.00000525020000","PERIAPSIS":"546.084","REV_AT_EPOCH":"10785","MEAN_MOTION_DOT":"-0.00000203","ELEMENT_SET_NO":"999","MEAN_MOTION":"15.06410752","OBJECT_NAME":"STARLINK-1053","ECCENTRICITY":"0.00015830","INCLINATION":"53.0535","EPHEMERIS_TYPE":"0","TIME_SYSTEM":"UTC","SEMIMAJOR_AXIS":"6925.316","OBJECT_ID":"2019-074AX","PERIOD":"95.591","TLE_LINE2":"2 44758  53.0535 185.0309 0001583  82.8274 277.2894 15.06410752107856"},{"TIME_SYSTEM":"UTC","EPHEMERIS_TYPE":"0","TLE_LINE2":"2 44759  53.0547 184.7991 0001774  70.3454 289.7727 15.06401520105503","PERIOD":"95.592","OBJECT_ID":"2019-074AY","SEMIMAJOR_AXIS":"6925.344","ECCENTRICITY":"0.00017740","OBJECT_NAME":"STARLINK-1054","MEAN_MOTION":"15.06401520","ELEMENT_SET_NO":"999","MEAN_MOTION_DOT":"-0.00000063","INCLINATION":"53.0547","PERIAPSIS":"545.980","REV_AT_EPOCH":"10550","BSTAR":"0.00001471000000","OBJECT_TYPE":"PAYLOAD","EPOCH":"2021-10-27T03:34:48.864288","GP_ID":"188270352","FILE":"3187107","CLASSIFICATION_TYPE":"U","DECAY_DATE":null,"MEAN_ANOMALY":"289.7727","MEAN_MOTION_DDOT":"0.0000000000000","SITE":"AFETR","APOAPSIS":"548.437","TLE_LINE1":"1 44759U 19074AY  21300.14917667 -.00000063  00000-0  14710-4 0  9994","NORAD_CAT_ID":"44759","CENTER_NAME":"EARTH","RCS_SIZE":"LARGE","RA_OF_ASC_NODE":"184.7991","COUNTRY_CODE":"US","ARG_OF_PERICENTER":"70.3454","MEAN_ELEMENT_THEORY":"SGP4","LAUNCH_DATE":"2019-11-11","REF_FRAME":"TEME"},{"EPOCH":"2021-10-27T04:49:07.605408","OBJECT_TYPE":"PAYLOAD","BSTAR":"0.00004744800000","PERIAPSIS":"545.967","REV_AT_EPOCH":"10787","FILE":"3187107","GP_ID":"188270602","EPHEMERIS_TYPE":"0","TIME_SYSTEM":"UTC","SEMIMAJOR_AXIS":"6925.363","OBJECT_ID":"2019-074AZ","PERIOD":"95.592","TLE_LINE2":"2 44760  53.0523 184.5639 0001820  72.6257 287.4931 15.06395363107875","MEAN_MOTION_DOT":"0.00000425","ELEMENT_SET_NO":"999","MEAN_MOTION":"15.06395363","OBJECT_NAME":"STARLINK-1055","ECCENTRICITY":"0.00018200","INCLINATION":"53.0523","NORAD_CAT_ID":"44760","CENTER_NAME":"EARTH","COUNTRY_CODE":"US","RA_OF_ASC_NODE":"184.5639","RCS_SIZE":"LARGE","ARG_OF_PERICENTER":"72.6257","REF_FRAME":"TEME","LAUNCH_DATE":"2019-11-11","MEAN_ELEMENT_THEORY":"SGP4","MEAN_ANOMALY":"287.4931","CLASSIFICATION_TYPE":"U","DECAY_DATE":null,"SITE":"AFETR","MEAN_MOTION_DDOT":"0.0000000000000","TLE_LINE1":"1 44760U 19074AZ  21300.20078247  .00000425  00000-0  47448-4 0  9990","APOAPSIS":"548.488"},{"REV_AT_EPOCH":"10811","PERIAPSIS":"545.978","BSTAR":"0.00010064000000","EPOCH":"2021-10-27T16:13:50.082240","OBJECT_TYPE":"PAYLOAD","GP_ID":"188279386","FILE":"3187413","TLE_LINE2":"2 44761  53.0538 182.4274 0001829  74.9652 285.1539 15.06389864108113","PERIOD":"95.593","OBJECT_ID":"2019-074BA","SEMIMAJOR_AXIS":"6925.380","TIME_SYSTEM":"UTC","EPHEMERIS_TYPE":"0","INCLINATION":"53.0538","ECCENTRICITY":"0.00018290","OBJECT_NAME":"STARLINK-1056","MEAN_MOTION":"15.06389864","ELEMENT_SET_NO":"999","MEAN_MOTION_DOT":"0.00001217","RCS_SIZE":"LARGE","RA_OF_ASC_NODE":"182.4274","COUNTRY_CODE":"US","NORAD_CAT_ID":"44761","CENTER_NAME":"EARTH","MEAN_ELEMENT_THEORY":"SGP4","LAUNCH_DATE":"2019-11-11","REF_FRAME":"TEME","ARG_OF_PERICENTER":"74.9652","MEAN_MOTION_DDOT":"0.0000000000000","SITE":"AFETR","DECAY_DATE":null,"CLASSIFICATION_TYPE":"U","MEAN_ANOMALY":"285.1539","APOAPSIS":"548.511","TLE_LINE1":"1 44761U 19074BA  21300.67627410  .00001217  00000-0  10064-3 0  9997"}];
